{
    "links": {
        "self": "http://www.neowsapp.com/rest/v1/neo/3725976?api_key=iIulBulltgU6a56xZRHN4H3l9WmuAYTsLGpBGhQ2"
    },
    "id": "3725976",
    "neo_reference_id": "3725976",
    "name": "(2015 PW227)",
    "designation": "2015 PW227",
    "nasa_jpl_url": "http://ssd.jpl.nasa.gov/sbdb.cgi?sstr=3725976",
    "absolute_magnitude_h": 25.6,
    "estimated_diameter": {
        "kilometers": {
            "estimated_diameter_min": 0.0201629919,
            "estimated_diameter_max": 0.0450858206
        },
        "meters": {
            "estimated_diameter_min": 20.1629919443,
            "estimated_diameter_max": 45.0858206172
        },
        "miles": {
            "estimated_diameter_min": 0.0125286985,
            "estimated_diameter_max": 0.0280150214
        },
        "feet": {
            "estimated_diameter_min": 66.1515504905,
            "estimated_diameter_max": 147.9193637137
        }
    },
    "is_potentially_hazardous_asteroid": false,
    "close_approach_data": [
        {
            "close_approach_date": "2015-08-22",
            "close_approach_date_full": "2015-Aug-22 12:55",
            "epoch_date_close_approach": 1440248100000,
            "relative_velocity": {
                "kilometers_per_second": "10.3279688212",
                "kilometers_per_hour": "37180.6877564964",
                "miles_per_hour": "23102.6334562519"
            },
            "miss_distance": {
                "astronomical": "0.0635760185",
                "lunar": "24.7310711965",
                "kilometers": "9510836.950680595",
                "miles": "5909760.041938411"
            },
            "orbiting_body": "Earth"
        }
    ],
    "orbital_data": {
        "orbit_id": "4",
        "orbit_determination_date": "2017-04-06 08:32:29",
        "first_observation_date": "2015-08-10",
        "last_observation_date": "2015-08-21",
        "data_arc_in_days": 11,
        "observations_used": 14,
        "orbit_uncertainty": "8",
        "minimum_orbit_intersection": ".051126",
        "jupiter_tisserand_invariant": "3.893",
        "epoch_osculation": "2457246.5",
        "eccentricity": ".4706304252155641",
        "semi_major_axis": "1.820783887018311",
        "inclination": "7.532973464918761",
        "ascending_node_longitude": "134.480429617212",
        "orbital_period": "897.3999253090652",
        "perihelion_distance": ".9638675920452359",
        "perihelion_argument": "237.8045291849686",
        "aphelion_distance": "2.677700181991387",
        "perihelion_time": "2457291.568854737203",
        "mean_anomaly": "341.9202261468818",
        "mean_motion": ".4011589368876042",
        "equinox": "J2000",
        "orbit_class": {
            "orbit_class_type": "APO",
            "orbit_class_description": "Near-Earth asteroid orbits which cross the Earth’s orbit similar to that of 1862 Apollo",
            "orbit_class_range": "a (semi-major axis) > 1.0 AU; q (perihelion) < 1.017 AU"
        }
    },
    "is_sentry_object": false
}